{
  "type": "FeatureCollection",
  "features": [
    {
      "type": "Feature",
      "properties": {
        "norad_id": 41866,
        "name": "GOES 16",
        "group": "weather",
        "lat": -0.0038917157599900644,
        "lon": 81.176846769472,
        "alt_km": 35800.33507227606,
        "timestamp": "2025-12-11T07:02:23.376354+00:00",
        "meta_object_name": "GOES 16",
        "meta_object_id": "2016-071A",
        "meta_epoch": "2025-12-10T19:53:24.597024",
        "meta_mean_motion": 1.00271315,
        "meta_eccentricity": 0.00033358,
        "meta_inclination": 0.0654,
        "meta_ra_of_asc_node": 104.0037,
        "meta_arg_of_pericenter": 157.7169,
        "meta_mean_anomaly": 11.7576,
        "meta_ephemeris_type": 0,
        "meta_classification_type": "U",
        "meta_norad_cat_id": 41866,
        "meta_element_set_no": 999,
        "meta_rev_at_epoch": 3321,
        "meta_bstar": 0,
        "meta_mean_motion_dot": -8.6e-07,
        "meta_mean_motion_ddot": 0,
        "tle_line1": "1 41866U 16071A   25344.82875691 -.00000086  00000+0  00000+0 0  9997",
        "tle_line2": "2 41866   0.0654 104.0037 0003335 157.7169  11.7576  1.00271315 33213"
      },
      "geometry": {
        "type": "Point",
        "coordinates": [
          81.176846769472,
          -0.0038917157599900644
        ]
      }
    },
    {
      "type": "Feature",
      "properties": {
        "norad_id": 41882,
        "name": "FENGYUN 4A",
        "group": "weather",
        "lat": -1.3676076484438022,
        "lon": -50.26912653681363,
        "alt_km": 35783.5108058753,
        "timestamp": "2025-12-11T07:02:23.376366+00:00",
        "meta_object_name": "FENGYUN 4A",
        "meta_object_id": "2016-077A",
        "meta_epoch": "2025-12-10T20:58:33.357216",
        "meta_mean_motion": 1.00270494,
        "meta_eccentricity": 0.00049619,
        "meta_inclination": 1.8446,
        "meta_ra_of_asc_node": 82.4004,
        "meta_arg_of_pericenter": 145.8302,
        "meta_mean_anomaly": 290.0903,
        "meta_ephemeris_type": 0,
        "meta_classification_type": "U",
        "meta_norad_cat_id": 41882,
        "meta_element_set_no": 999,
        "meta_rev_at_epoch": 3304,
        "meta_bstar": 0,
        "meta_mean_motion_dot": -3.52e-06,
        "meta_mean_motion_ddot": 0,
        "tle_line1": "1 41882U 16077A   25344.87399719 -.00000352  00000+0  00000+0 0  9994",
        "tle_line2": "2 41882   1.8446  82.4004 0004961 145.8302 290.0903  1.00270494 33049"
      },
      "geometry": {
        "type": "Point",
        "coordinates": [
          -50.26912653681363,
          -1.3676076484438022
        ]
      }
    },
    {
      "type": "Feature",
      "properties": {
        "norad_id": 41884,
        "name": "CYGFM05",
        "group": "weather",
        "lat": -16.82950658938327,
        "lon": -97.76683136261691,
        "alt_km": 419.5673606113851,
        "timestamp": "2025-12-11T07:02:23.376378+00:00",
        "meta_object_name": "CYGFM05",
        "meta_object_id": "2016-078A",
        "meta_epoch": "2025-12-10T14:39:13.190112",
        "meta_mean_motion": 15.47511355,
        "meta_eccentricity": 0.0009831,
        "meta_inclination": 34.9599,
        "meta_ra_of_asc_node": 61.038,
        "meta_arg_of_pericenter": 163.8231,
        "meta_mean_anomaly": 196.2806,
        "meta_ephemeris_type": 0,
        "meta_classification_type": "U",
        "meta_norad_cat_id": 41884,
        "meta_element_set_no": 999,
        "meta_rev_at_epoch": 49943,
        "meta_bstar": 0.00053014,
        "meta_mean_motion_dot": 0.00028182,
        "meta_mean_motion_ddot": 0,
        "tle_line1": "1 41884U 16078A   25344.61056933  .00028182  00000+0  53014-3 0  9994",
        "tle_line2": "2 41884  34.9599  61.0380 0009831 163.8231 196.2806 15.47511355499437"
      },
      "geometry": {
        "type": "Point",
        "coordinates": [
          -97.76683136261691,
          -16.82950658938327
        ]
      }
    },
    {
      "type": "Feature",
      "properties": {
        "norad_id": 41885,
        "name": "CYGFM04",
        "group": "weather",
        "lat": 33.61119500028448,
        "lon": 103.61406615386188,
        "alt_km": 413.1267085488598,
        "timestamp": "2025-12-11T07:02:23.376389+00:00",
        "meta_object_name": "CYGFM04",
        "meta_object_id": "2016-078B",
        "meta_epoch": "2025-12-10T19:53:51.856224",
        "meta_mean_motion": 15.50228881,
        "meta_eccentricity": 0.00092662,
        "meta_inclination": 34.9355,
        "meta_ra_of_asc_node": 34.4424,
        "meta_arg_of_pericenter": 193.6147,
        "meta_mean_anomaly": 166.4326,
        "meta_ephemeris_type": 0,
        "meta_classification_type": "U",
        "meta_norad_cat_id": 41885,
        "meta_element_set_no": 999,
        "meta_rev_at_epoch": 49964,
        "meta_bstar": 0.00053049655,
        "meta_mean_motion_dot": 0.00031045,
        "meta_mean_motion_ddot": 0,
        "tle_line1": "1 41885U 16078B   25344.82907241  .00031045  00000+0  53050-3 0  9997",
        "tle_line2": "2 41885  34.9355  34.4424 0009266 193.6147 166.4326 15.50228881499642"
      },
      "geometry": {
        "type": "Point",
        "coordinates": [
          103.61406615386188,
          33.61119500028448
        ]
      }
    },
    {
      "type": "Feature",
      "properties": {
        "norad_id": 41886,
        "name": "CYGFM02",
        "group": "weather",
        "lat": 34.44398967402948,
        "lon": 108.91974929373949,
        "alt_km": 408.88217987664393,
        "timestamp": "2025-12-11T07:02:23.376400+00:00",
        "meta_object_name": "CYGFM02",
        "meta_object_id": "2016-078C",
        "meta_epoch": "2025-12-10T19:52:57.076896",
        "meta_mean_motion": 15.51599098,
        "meta_eccentricity": 0.00109059,
        "meta_inclination": 34.9444,
        "meta_ra_of_asc_node": 32.7978,
        "meta_arg_of_pericenter": 193.1509,
        "meta_mean_anomaly": 166.8931,
        "meta_ephemeris_type": 0,
        "meta_classification_type": "U",
        "meta_norad_cat_id": 41886,
        "meta_element_set_no": 999,
        "meta_rev_at_epoch": 49977,
        "meta_bstar": 0.00052443783,
        "meta_mean_motion_dot": 0.0003226,
        "meta_mean_motion_ddot": 0,
        "tle_line1": "1 41886U 16078C   25344.82843839  .00032260  00000+0  52444-3 0  9996",
        "tle_line2": "2 41886  34.9444  32.7978 0010905 193.1509 166.8931 15.51599098499778"
      },
      "geometry": {
        "type": "Point",
        "coordinates": [
          108.91974929373949,
          34.44398967402948
        ]
      }
    },
    {
      "type": "Feature",
      "properties": {
        "norad_id": 41887,
        "name": "CYGFM01",
        "group": "weather",
        "lat": -32.890717689476965,
        "lon": -53.212403537151935,
        "alt_km": 424.1201321493136,
        "timestamp": "2025-12-11T07:02:23.376411+00:00",
        "meta_object_name": "CYGFM01",
        "meta_object_id": "2016-078D",
        "meta_epoch": "2025-12-10T22:13:16.222080",
        "meta_mean_motion": 15.48103632,
        "meta_eccentricity": 0.00094243,
        "meta_inclination": 34.9432,
        "meta_ra_of_asc_node": 61.3408,
        "meta_arg_of_pericenter": 158.7693,
        "meta_mean_anomaly": 201.3421,
        "meta_ephemeris_type": 0,
        "meta_classification_type": "U",
        "meta_norad_cat_id": 41887,
        "meta_element_set_no": 999,
        "meta_rev_at_epoch": 49942,
        "meta_bstar": 0.00053215326,
        "meta_mean_motion_dot": 0.00028881,
        "meta_mean_motion_ddot": 0,
        "tle_line1": "1 41887U 16078D   25344.92588220  .00028881  00000+0  53215-3 0  9999",
        "tle_line2": "2 41887  34.9432  61.3408 0009424 158.7693 201.3421 15.48103632499429"
      },
      "geometry": {
        "type": "Point",
        "coordinates": [
          -53.212403537151935,
          -32.890717689476965
        ]
      }
    },
    {
      "type": "Feature",
      "properties": {
        "norad_id": 41888,
        "name": "CYGFM08",
        "group": "weather",
        "lat": -31.639987264773307,
        "lon": -19.981170961998643,
        "alt_km": 422.92627634798464,
        "timestamp": "2025-12-11T07:02:23.376422+00:00",
        "meta_object_name": "CYGFM08",
        "meta_object_id": "2016-078E",
        "meta_epoch": "2025-12-10T20:30:01.570176",
        "meta_mean_motion": 15.49298183,
        "meta_eccentricity": 0.001134,
        "meta_inclination": 34.9464,
        "meta_ra_of_asc_node": 44.8236,
        "meta_arg_of_pericenter": 182.0254,
        "meta_mean_anomaly": 178.0423,
        "meta_ephemeris_type": 0,
        "meta_classification_type": "U",
        "meta_norad_cat_id": 41888,
        "meta_element_set_no": 999,
        "meta_rev_at_epoch": 49964,
        "meta_bstar": 0.00051397011,
        "meta_mean_motion_dot": 0.00029116,
        "meta_mean_motion_ddot": 0,
        "tle_line1": "1 41888U 16078E   25344.85418484  .00029116  00000+0  51397-3 0  9997",
        "tle_line2": "2 41888  34.9464  44.8236 0011340 182.0254 178.0423 15.49298183499646"
      },
      "geometry": {
        "type": "Point",
        "coordinates": [
          -19.981170961998643,
          -31.639987264773307
        ]
      }
    }
  ]
}